[{"OBJECT_NAME":"OBJECT AL","OBJECT_ID":"2023-085AL","EPOCH":"2026-03-09T22:26:04.970400","MEAN_MOTION":15.31857284,"ECCENTRICITY":0.000802,"INCLINATION":97.4839,"RA_OF_ASC_NODE":180.0127,"ARG_OF_PERICENTER":78.7242,"MEAN_ANOMALY":281.49,"EPHEMERIS_TYPE":0,"CLASSIFICATION_TYPE":"U","NORAD_CAT_ID":57038,"ELEMENT_SET_NO":999,"REV_AT_EPOCH":15154,"BSTAR":0.0006591637,"MEAN_MOTION_DOT":0.00020246,"MEAN_MOTION_DDOT":0},{"OBJECT_NAME":"STARLINK-30701","OBJECT_ID":"2023-148R","EPOCH":"2026-03-09T05:54:16.501248","MEAN_MOTION":15.30193645,"ECCENTRICITY":9.674e-5,"INCLINATION":53.1629,"RA_OF_ASC_NODE":26.3782,"ARG_OF_PERICENTER":83.9632,"MEAN_ANOMALY":276.1479,"EPHEMERIS_TYPE":0,"CLASSIFICATION_TYPE":"U","NORAD_CAT_ID":57950,"ELEMENT_SET_NO":999,"REV_AT_EPOCH":13835,"BSTAR":-8.976134e-6,"MEAN_MOTION_DOT":-6.25e-6,"MEAN_MOTION_DDOT":0}]
